{
"type": "FeatureCollection",
"crs": { "type": "name", "properties": { "name": "urn:ogc:def:crs:OGC:1.3:CRS84" } },
"features": [
{ "type": "Feature", "properties": { "bidx": "0", "name": "W", "address": "Straße des 17. Juni, Berlin", "building": "university", "area_m2": 9524.0257710900296, "building_type_source": "osm", "year_built": null, "year_built_source": null, "retrofit_situation": "standard", "retrofit_situation_source": "estimated", "retrofit_probability": 0.53, "zensus_age_class": null, "zensus_type_class": null, "zensus_source": null, "zensus_type_note": "Not adjusted: OSM type is outside the residential Zensus type dataset", "zensus_year_note": "Not adjusted: building type is outside the residential Zensus age dataset", "levels": 2, "height_m": 7.0, "osm_id": "way/23517691", "osmid": 23517691 }, "geometry": { "type": "Polygon", "coordinates": [ [ [ 13.3251037, 52.5137299 ], [ 13.3251814, 52.5137347 ], [ 13.3254157, 52.5137495 ], [ 13.3257292, 52.5137692 ], [ 13.3257716, 52.5137718 ], [ 13.3258217, 52.513775 ], [ 13.3258225, 52.5137702 ], [ 13.3258499, 52.5137719 ], [ 13.3258872, 52.5135524 ], [ 13.3258881, 52.5135471 ], [ 13.3258629, 52.5135455 ], [ 13.325864, 52.5135396 ], [ 13.3254103, 52.513511 ], [ 13.3254198, 52.5134553 ], [ 13.3254714, 52.5134586 ], [ 13.3254847, 52.5133801 ], [ 13.3253276, 52.5133702 ], [ 13.3253139, 52.5134507 ], [ 13.3253713, 52.5134543 ], [ 13.3253624, 52.5135071 ], [ 13.3247054, 52.5134658 ], [ 13.3243863, 52.5134458 ], [ 13.3243853, 52.5134518 ], [ 13.3243597, 52.5134502 ], [ 13.3243215, 52.5136754 ], [ 13.3243391, 52.5136765 ], [ 13.3243383, 52.5136812 ], [ 13.324393, 52.5136847 ], [ 13.3245962, 52.5136975 ], [ 13.3247223, 52.5137054 ], [ 13.3246947, 52.5138678 ], [ 13.3246883, 52.5139055 ], [ 13.3246635, 52.513904 ], [ 13.3246334, 52.5140813 ], [ 13.3247587, 52.5140892 ], [ 13.3248912, 52.5140975 ], [ 13.3249213, 52.5139203 ], [ 13.3248969, 52.5139188 ], [ 13.3249308, 52.513719 ], [ 13.3251037, 52.5137299 ] ] ] } },
{ "type": "Feature", "properties": { "bidx": "1", "name": "A", "address": "Marchstraße, Berlin", "building": "university", "area_m2": 4911.9841927580774, "building_type_source": "osm", "year_built": null, "year_built_source": null, "retrofit_situation": "standard", "retrofit_situation_source": "estimated", "retrofit_probability": 0.53, "zensus_age_class": null, "zensus_type_class": null, "zensus_source": null, "zensus_type_note": "Not adjusted: OSM type is outside the residential Zensus type dataset", "zensus_year_note": "Not adjusted: building type is outside the residential Zensus age dataset", "levels": 10, "height_m": 35.0, "osm_id": "way/40451510", "osmid": 40451510 }, "geometry": { "type": "Polygon", "coordinates": [ [ [ 13.3232422, 52.5138744 ], [ 13.3231651, 52.5143129 ], [ 13.3228148, 52.51429 ], [ 13.322919, 52.5136977 ], [ 13.3229232, 52.513674 ], [ 13.3229346, 52.5136092 ], [ 13.323113, 52.5136208 ], [ 13.323142, 52.5136227 ], [ 13.3232849, 52.513632 ], [ 13.3232711, 52.5137101 ], [ 13.3232422, 52.5138744 ] ] ] } },
{ "type": "Feature", "properties": { "bidx": "2", "name": "A-F", "address": "Straße des 17. Juni, Berlin", "building": "university", "area_m2": 7861.6236040828971, "building_type_source": "osm", "year_built": null, "year_built_source": null, "retrofit_situation": "standard", "retrofit_situation_source": "estimated", "retrofit_probability": 0.53, "zensus_age_class": null, "zensus_type_class": null, "zensus_source": null, "zensus_type_note": "Not adjusted: OSM type is outside the residential Zensus type dataset", "zensus_year_note": "Not adjusted: building type is outside the residential Zensus age dataset", "levels": 2, "height_m": 7.0, "osm_id": "way/40451513", "osmid": 40451513 }, "geometry": { "type": "Polygon", "coordinates": [ [ [ 13.3235791, 52.5131457 ], [ 13.3239033, 52.5131662 ], [ 13.324188, 52.5132473 ], [ 13.324148, 52.5132958 ], [ 13.3240872, 52.5136612 ], [ 13.3241331, 52.5137714 ], [ 13.3240353, 52.5137806 ], [ 13.3240505, 52.5138441 ], [ 13.3239641, 52.5139618 ], [ 13.3238704, 52.5139548 ], [ 13.3237682, 52.5139471 ], [ 13.3237514, 52.5139082 ], [ 13.3234824, 52.5138904 ], [ 13.3232422, 52.5138744 ], [ 13.3232711, 52.5137101 ], [ 13.3236559, 52.5137335 ], [ 13.3237023, 52.5136543 ], [ 13.3238058, 52.5134776 ], [ 13.3238577, 52.513389 ], [ 13.3234827, 52.5132759 ], [ 13.323521, 52.5132242 ], [ 13.3235791, 52.5131457 ] ] ] } },
{ "type": "Feature", "properties": { "bidx": "3", "name": "Mathematikgebäude", "address": "Straße des 17. Juni 136, 10623 Berlin", "building": "university", "area_m2": 18100.0, "building_type_source": "osm", "year_built": null, "year_built_source": null, "retrofit_situation": "standard", "retrofit_situation_source": "estimated", "retrofit_probability": 0.53, "zensus_age_class": null, "zensus_type_class": null, "zensus_source": null, "zensus_type_note": "Not adjusted: OSM type is outside the residential Zensus type dataset", "zensus_year_note": "Not adjusted: building type is outside the residential Zensus age dataset", "levels": 8, "height_m": 28.0, "osm_id": "way/40451892", "osmid": 40451892 }, "geometry": { "type": "Polygon", "coordinates": [ [ [ 13.3259324, 52.513419 ], [ 13.3258744, 52.5134876 ], [ 13.325864, 52.5135396 ], [ 13.3258629, 52.5135455 ], [ 13.3258881, 52.5135471 ], [ 13.3258872, 52.5135524 ], [ 13.3260706, 52.5135634 ], [ 13.326069, 52.5135696 ], [ 13.3260998, 52.5135725 ], [ 13.3260978, 52.5135974 ], [ 13.3261399, 52.5136005 ], [ 13.3261044, 52.5137952 ], [ 13.3260623, 52.5137925 ], [ 13.3260609, 52.5138002 ], [ 13.3260539, 52.5138383 ], [ 13.3257629, 52.5138179 ], [ 13.3257673, 52.5137947 ], [ 13.3257716, 52.5137718 ], [ 13.3257292, 52.5137692 ], [ 13.3257248, 52.513792 ], [ 13.3257205, 52.5138149 ], [ 13.3254209, 52.5137938 ], [ 13.3254252, 52.5137729 ], [ 13.325427, 52.5137645 ], [ 13.3254142, 52.5137643 ], [ 13.3254157, 52.5137495 ], [ 13.3251814, 52.5137347 ], [ 13.3251037, 52.5137299 ], [ 13.3251017, 52.5137398 ], [ 13.3250833, 52.5137392 ], [ 13.3250816, 52.5137493 ], [ 13.3250585, 52.5138892 ], [ 13.3250695, 52.5138904 ], [ 13.3250565, 52.5139649 ], [ 13.3250413, 52.5139648 ], [ 13.325031, 52.5139685 ], [ 13.3250266, 52.5139953 ], [ 13.3250339, 52.5140034 ], [ 13.3250513, 52.5140046 ], [ 13.3250379, 52.5140749 ], [ 13.3250046, 52.5140726 ], [ 13.3249756, 52.5142222 ], [ 13.3250098, 52.5142473 ], [ 13.3252526, 52.5142666 ], [ 13.3252543, 52.5142601 ], [ 13.3254004, 52.5142706 ], [ 13.3253947, 52.5143011 ], [ 13.3253915, 52.5143236 ], [ 13.3257125, 52.5143539 ], [ 13.3257185, 52.5143543 ], [ 13.32572, 52.5143462 ], [ 13.3258269, 52.5143533 ], [ 13.3258255, 52.5143614 ], [ 13.3258366, 52.5143622 ], [ 13.3258383, 52.5143529 ], [ 13.3259103, 52.5143571 ], [ 13.3259202, 52.514301 ], [ 13.3261217, 52.5143138 ], [ 13.3261338, 52.5143146 ], [ 13.3261437, 52.5143154 ], [ 13.3263029, 52.514326 ], [ 13.3263409, 52.5143097 ], [ 13.3263732, 52.5141291 ], [ 13.3263445, 52.5141275 ], [ 13.3263514, 52.5140874 ], [ 13.326396, 52.5140905 ], [ 13.3264127, 52.5140841 ], [ 13.3264151, 52.5140733 ], [ 13.326418, 52.514061 ], [ 13.3264088, 52.5140534 ], [ 13.3263593, 52.5140497 ], [ 13.3263652, 52.5140186 ], [ 13.3263676, 52.5140094 ], [ 13.3263942, 52.5140115 ], [ 13.3263971, 52.5139858 ], [ 13.3264189, 52.5139815 ], [ 13.3264892, 52.5139462 ], [ 13.326513, 52.5139184 ], [ 13.3265361, 52.5138878 ], [ 13.3265411, 52.5138555 ], [ 13.3265526, 52.5138545 ], [ 13.3265597, 52.513851 ], [ 13.3265635, 52.5138223 ], [ 13.3265594, 52.5138174 ], [ 13.3265493, 52.5138151 ], [ 13.3265529, 52.5137776 ], [ 13.3265286, 52.5137266 ], [ 13.3264582, 52.5136751 ], [ 13.3263686, 52.5136437 ], [ 13.3263415, 52.5136429 ], [ 13.3263618, 52.513541 ], [ 13.3263789, 52.5134407 ], [ 13.3263455, 52.5134141 ], [ 13.3263245, 52.5133976 ], [ 13.3262622, 52.5133946 ], [ 13.3262684, 52.5133662 ], [ 13.3262725, 52.5133435 ], [ 13.3261675, 52.5133398 ], [ 13.3260423, 52.5133622 ], [ 13.3259324, 52.513419 ] ] ] } },
{ "type": "Feature", "properties": { "bidx": "4", "name": null, "address": null, "building": "university", "area_m2": 109.60710104373224, "building_type_source": "osm", "year_built": null, "year_built_source": null, "retrofit_situation": "standard", "retrofit_situation_source": "estimated", "retrofit_probability": 0.53, "zensus_age_class": null, "zensus_type_class": null, "zensus_source": null, "zensus_type_note": "Not adjusted: OSM type is outside the residential Zensus type dataset", "zensus_year_note": "Not adjusted: building type is outside the residential Zensus age dataset", "levels": 3, "height_m": 10.5, "osm_id": "way/103989044", "osmid": 103989044 }, "geometry": { "type": "Polygon", "coordinates": [ [ [ 13.3258302, 52.514398 ], [ 13.3257061, 52.5143898 ], [ 13.3257092, 52.5143723 ], [ 13.3257125, 52.5143539 ], [ 13.3257185, 52.5143543 ], [ 13.32572, 52.5143462 ], [ 13.3258269, 52.5143533 ], [ 13.3258255, 52.5143614 ], [ 13.3258366, 52.5143622 ], [ 13.3258335, 52.5143797 ], [ 13.3258302, 52.514398 ] ] ] } },
{ "type": "Feature", "properties": { "bidx": "5", "name": null, "address": null, "building": "bridge", "area_m2": 83.847324275390207, "building_type_source": "osm", "year_built": null, "year_built_source": null, "retrofit_situation": "retrofit", "retrofit_situation_source": "estimated", "retrofit_probability": 0.46, "zensus_age_class": null, "zensus_type_class": null, "zensus_source": null, "zensus_type_note": "Not adjusted: OSM type is outside the residential Zensus type dataset", "zensus_year_note": "Not adjusted: building type is outside the residential Zensus age dataset", "levels": 2, "height_m": 7.0, "osm_id": "way/104370853", "osmid": 104370853 }, "geometry": { "type": "Polygon", "coordinates": [ [ [ 13.3260909, 52.5145043 ], [ 13.3261162, 52.5143444 ], [ 13.3261217, 52.5143138 ], [ 13.3261338, 52.5143146 ], [ 13.3261437, 52.5143154 ], [ 13.3261382, 52.5143458 ], [ 13.3261115, 52.5145055 ], [ 13.3260909, 52.5145043 ] ] ] } },
{ "type": "Feature", "properties": { "bidx": "6", "name": "HL", "address": "Marchstraße 4, 10587 Berlin", "building": "university", "area_m2": 4640.8072888436409, "building_type_source": "osm", "year_built": null, "year_built_source": null, "retrofit_situation": "retrofit", "retrofit_situation_source": "estimated", "retrofit_probability": 0.53, "zensus_age_class": null, "zensus_type_class": null, "zensus_source": null, "zensus_type_note": "Not adjusted: OSM type is outside the residential Zensus type dataset", "zensus_year_note": "Not adjusted: building type is outside the residential Zensus age dataset", "levels": 2, "height_m": 7.0, "osm_id": "way/104371895", "osmid": 104371895 }, "geometry": { "type": "Polygon", "coordinates": [ [ [ 13.3234958, 52.5142266 ], [ 13.3234881, 52.5142774 ], [ 13.3235363, 52.5142801 ], [ 13.3235308, 52.5143166 ], [ 13.3233909, 52.5143087 ], [ 13.3233688, 52.5144545 ], [ 13.3235078, 52.5144623 ], [ 13.3235092, 52.5144533 ], [ 13.3235488, 52.5144555 ], [ 13.3235413, 52.5145051 ], [ 13.323591, 52.5145079 ], [ 13.323596, 52.5144746 ], [ 13.3239848, 52.5144965 ], [ 13.3239909, 52.5144563 ], [ 13.3240671, 52.5144606 ], [ 13.3240592, 52.5145127 ], [ 13.3243283, 52.5145278 ], [ 13.3243424, 52.5144344 ], [ 13.3243896, 52.514437 ], [ 13.3243944, 52.5144056 ], [ 13.3243686, 52.5144042 ], [ 13.3243927, 52.5142452 ], [ 13.3242578, 52.5142376 ], [ 13.3242458, 52.5143163 ], [ 13.3241569, 52.5143113 ], [ 13.3241641, 52.5142641 ], [ 13.3234958, 52.5142266 ] ] ] } },
{ "type": "Feature", "properties": { "bidx": "7", "name": null, "address": null, "building": "university", "area_m2": 102.45051415188324, "building_type_source": "osm", "year_built": null, "year_built_source": null, "retrofit_situation": "standard", "retrofit_situation_source": "estimated", "retrofit_probability": 0.53, "zensus_age_class": null, "zensus_type_class": null, "zensus_source": null, "zensus_type_note": "Not adjusted: OSM type is outside the residential Zensus type dataset", "zensus_year_note": "Not adjusted: building type is outside the residential Zensus age dataset", "levels": 1, "height_m": 3.5, "osm_id": "way/280722498", "osmid": 280722498 }, "geometry": { "type": "Polygon", "coordinates": [ [ [ 13.3243361, 52.5137795 ], [ 13.3242636, 52.5137757 ], [ 13.3242538, 52.5138446 ], [ 13.324325, 52.5138494 ], [ 13.3243361, 52.5137795 ] ] ] } },
{ "type": "Feature", "properties": { "bidx": "8", "name": null, "address": null, "building": "greenhouse", "area_m2": 160.39864315304698, "building_type_source": "osm", "year_built": null, "year_built_source": null, "retrofit_situation": null, "retrofit_situation_source": "estimated", "retrofit_probability": null, "zensus_age_class": null, "zensus_type_class": null, "zensus_source": null, "zensus_type_note": "Not adjusted: OSM type is outside the residential Zensus type dataset", "zensus_year_note": "Not adjusted: building type is outside the residential Zensus age dataset", "levels": 3, "height_m": 8.4, "osm_id": "way/280722499", "osmid": 280722499 }, "geometry": { "type": "Polygon", "coordinates": [ [ [ 13.325113, 52.5134074 ], [ 13.3251236, 52.5133502 ], [ 13.3249875, 52.5133409 ], [ 13.3249769, 52.513398 ], [ 13.325113, 52.5134074 ] ] ] } },
{ "type": "Feature", "properties": { "bidx": "9", "name": null, "address": null, "building": "container", "area_m2": 35.290320029752571, "building_type_source": "osm", "year_built": null, "year_built_source": null, "retrofit_situation": null, "retrofit_situation_source": "estimated", "retrofit_probability": null, "zensus_age_class": null, "zensus_type_class": null, "zensus_source": null, "zensus_type_note": "Not adjusted: OSM type is outside the residential Zensus type dataset", "zensus_year_note": "Not adjusted: building type is outside the residential Zensus age dataset", "levels": 3, "height_m": 8.4, "osm_id": "way/1298791071", "osmid": 1298791071 }, "geometry": { "type": "Polygon", "coordinates": [ [ [ 13.3244042, 52.5139669 ], [ 13.3244955, 52.5139715 ], [ 13.3244981, 52.5139527 ], [ 13.3244068, 52.513948 ], [ 13.3244042, 52.5139669 ] ] ] } },
{ "type": "Feature", "properties": { "bidx": "10", "name": null, "address": null, "building": "container", "area_m2": 39.529787215633426, "building_type_source": "osm", "year_built": null, "year_built_source": null, "retrofit_situation": null, "retrofit_situation_source": "estimated", "retrofit_probability": null, "zensus_age_class": null, "zensus_type_class": null, "zensus_source": null, "zensus_type_note": "Not adjusted: OSM type is outside the residential Zensus type dataset", "zensus_year_note": "Not adjusted: building type is outside the residential Zensus age dataset", "levels": 3, "height_m": 8.4, "osm_id": "way/1298791072", "osmid": 1298791072 }, "geometry": { "type": "Polygon", "coordinates": [ [ [ 13.3244094, 52.5139386 ], [ 13.3245008, 52.5139439 ], [ 13.3245041, 52.5139228 ], [ 13.3244127, 52.5139176 ], [ 13.3244094, 52.5139386 ] ] ] } }
]
}
