{
"type": "FeatureCollection",
"name": "buildings",
"crs": { "type": "name", "properties": { "name": "urn:ogc:def:crs:OGC:1.3:CRS84" } },
"features": [
{ "type": "Feature", "properties": { "bidx": "0", "address": "Nordmannpassage 10", "building": "apartments", "area_m2": 752.02103027763371, "building_type_source": "zensus", "year_built": 1949.0, "year_built_source": "zensus", "retrofit_situation": "retrofit", "retrofit_situation_source": "estimated", "retrofit_probability": 0.59, "zensus_age_class": "1949-1978", "zensus_type_class": "multi-family 7-12 dwellings", "zensus_source": "Zensus 2022 (Destatis, 100 m grid)", "zensus_type_note": "Filled from Zensus type distribution", "zensus_year_note": "Filled from Zensus age distribution", "levels": 6, "height_m": 20.0, "osm_id": "way/122291368", "osmid": 122291368 }, "geometry": { "type": "Polygon", "coordinates": [ [ [ 9.7338967, 52.3763875 ], [ 9.7339234, 52.3765591 ], [ 9.7341248, 52.3765555 ], [ 9.7341295, 52.3764295 ], [ 9.7341027, 52.3764285 ], [ 9.7340948, 52.3763745 ], [ 9.7338967, 52.3763875 ] ] ] } },
{ "type": "Feature", "properties": { "bidx": "1", "address": null, "building": "commercial", "area_m2": 415.51274807680716, "building_type_source": "osm", "year_built": null, "year_built_source": null, "retrofit_situation": "standard", "retrofit_situation_source": "estimated", "retrofit_probability": 0.48, "zensus_age_class": null, "zensus_type_class": null, "zensus_source": null, "zensus_type_note": "Not adjusted: OSM type is outside the residential Zensus type dataset", "zensus_year_note": "Not adjusted: building type is outside the residential Zensus age dataset", "levels": 2, "height_m": 6.0, "osm_id": "way/264885597", "osmid": 264885597 }, "geometry": { "type": "Polygon", "coordinates": [ [ [ 9.7344895, 52.3759119 ], [ 9.7346169, 52.3758766 ], [ 9.734629, 52.3758555 ], [ 9.7345573, 52.3757547 ], [ 9.7344084, 52.3757965 ], [ 9.7344895, 52.3759119 ] ] ] } },
{ "type": "Feature", "properties": { "bidx": "2", "address": null, "building": "commercial", "area_m2": 350.84300526293282, "building_type_source": "osm", "year_built": null, "year_built_source": null, "retrofit_situation": "standard", "retrofit_situation_source": "estimated", "retrofit_probability": 0.48, "zensus_age_class": null, "zensus_type_class": null, "zensus_source": null, "zensus_type_note": "Not adjusted: OSM type is outside the residential Zensus type dataset", "zensus_year_note": "Not adjusted: building type is outside the residential Zensus age dataset", "levels": 2, "height_m": 6.0, "osm_id": "way/264885598", "osmid": 264885598 }, "geometry": { "type": "Polygon", "coordinates": [ [ [ 9.7341194, 52.3759711 ], [ 9.7342651, 52.3760103 ], [ 9.7342703, 52.3760544 ], [ 9.7340463, 52.3760674 ], [ 9.7340325, 52.3759799 ], [ 9.7341194, 52.3759711 ] ] ] } },
{ "type": "Feature", "properties": { "bidx": "3", "address": null, "building": "commercial", "area_m2": 433.67086282027049, "building_type_source": "osm", "year_built": null, "year_built_source": null, "retrofit_situation": "standard", "retrofit_situation_source": "estimated", "retrofit_probability": 0.48, "zensus_age_class": null, "zensus_type_class": null, "zensus_source": null, "zensus_type_note": "Not adjusted: OSM type is outside the residential Zensus type dataset", "zensus_year_note": "Not adjusted: building type is outside the residential Zensus age dataset", "levels": 2, "height_m": 6.0, "osm_id": "way/264885599", "osmid": 264885599 }, "geometry": { "type": "Polygon", "coordinates": [ [ [ 9.7344795, 52.3764449 ], [ 9.7343049, 52.3764364 ], [ 9.7343138, 52.3763435 ], [ 9.7343774, 52.3763118 ], [ 9.7344916, 52.3763164 ], [ 9.7344795, 52.3764449 ] ] ] } },
{ "type": "Feature", "properties": { "bidx": "4", "address": null, "building": "terrace", "area_m2": 236.74524730735857, "building_type_source": "zensus", "year_built": 1951.0, "year_built_source": "zensus", "retrofit_situation": "retrofit", "retrofit_situation_source": "estimated", "retrofit_probability": 0.54, "zensus_age_class": "1949-1978", "zensus_type_class": "row single-family", "zensus_source": "Zensus 2022 (Destatis, 100 m grid)", "zensus_type_note": "Filled from Zensus type distribution", "zensus_year_note": "Filled from Zensus age distribution", "levels": 1, "height_m": 4.0, "osm_id": "way/264885601", "osmid": 264885601 }, "geometry": { "type": "Polygon", "coordinates": [ [ [ 9.7345089, 52.3761375 ], [ 9.7345012, 52.3760834 ], [ 9.7347149, 52.376072 ], [ 9.7347188, 52.376099 ], [ 9.7347227, 52.3761262 ], [ 9.7345089, 52.3761375 ] ] ] } },
{ "type": "Feature", "properties": { "bidx": "5", "address": null, "building": "residential", "area_m2": 449.84102933643544, "building_type_source": "zensus", "year_built": 1952.0, "year_built_source": "zensus", "retrofit_situation": "retrofit", "retrofit_situation_source": "estimated", "retrofit_probability": 0.59, "zensus_age_class": "1949-1978", "zensus_type_class": "other residential building", "zensus_source": "Zensus 2022 (Destatis, 100 m grid)", "zensus_type_note": "Filled from Zensus type distribution", "zensus_year_note": "Filled from Zensus age distribution", "levels": 3, "height_m": 9.0, "osm_id": "way/265647402", "osmid": 265647402 }, "geometry": { "type": "Polygon", "coordinates": [ [ [ 9.7348569, 52.3761967 ], [ 9.7347826, 52.3761928 ], [ 9.7347658, 52.3763137 ], [ 9.7347448, 52.3763125 ], [ 9.734724, 52.3764532 ], [ 9.7348174, 52.3764571 ], [ 9.7348569, 52.3761967 ] ] ] } },
{ "type": "Feature", "properties": { "bidx": "6", "address": null, "building": "residential", "area_m2": 441.70950486619495, "building_type_source": "zensus", "year_built": 1954.0, "year_built_source": "zensus", "retrofit_situation": "advanced retrofit", "retrofit_situation_source": "estimated", "retrofit_probability": 0.59, "zensus_age_class": "1949-1978", "zensus_type_class": "other residential building", "zensus_source": "Zensus 2022 (Destatis, 100 m grid)", "zensus_type_note": "Filled from Zensus type distribution", "zensus_year_note": "Filled from Zensus age distribution", "levels": 1, "height_m": 4.0, "osm_id": "way/265647404", "osmid": 265647404 }, "geometry": { "type": "Polygon", "coordinates": [ [ [ 9.7348806, 52.3760482 ], [ 9.7348861, 52.3760127 ], [ 9.7348087, 52.3758794 ], [ 9.7347212, 52.3757288 ], [ 9.7346854, 52.3757372 ], [ 9.734676, 52.3757218 ], [ 9.7346503, 52.375729 ], [ 9.734836, 52.3760452 ], [ 9.7348806, 52.3760482 ] ] ] } },
{ "type": "Feature", "properties": { "bidx": "7", "address": "Georgstraße 13, 30159 Hannover", "building": "residential", "area_m2": 501.5260941593325, "building_type_source": "zensus", "year_built": 1955.0, "year_built_source": "zensus", "retrofit_situation": "standard", "retrofit_situation_source": "estimated", "retrofit_probability": 0.59, "zensus_age_class": "1949-1978", "zensus_type_class": "other residential building", "zensus_source": "Zensus 2022 (Destatis, 100 m grid)", "zensus_type_note": "Filled from Zensus type distribution", "zensus_year_note": "Filled from Zensus age distribution", "levels": 6, "height_m": 20.0, "osm_id": "way/552430669", "osmid": 552430669 }, "geometry": { "type": "Polygon", "coordinates": [ [ [ 9.7341844, 52.3757268 ], [ 9.7339954, 52.3757776 ], [ 9.734077, 52.3758882 ], [ 9.7342623, 52.3758366 ], [ 9.7341844, 52.3757268 ] ] ] } },
{ "type": "Feature", "properties": { "bidx": "8", "address": "30159 Hannover", "building": "terrace", "area_m2": 222.23917314701359, "building_type_source": "zensus", "year_built": 1957.0, "year_built_source": "zensus", "retrofit_situation": "standard", "retrofit_situation_source": "estimated", "retrofit_probability": 0.54, "zensus_age_class": "1949-1978", "zensus_type_class": "row single-family", "zensus_source": "Zensus 2022 (Destatis, 100 m grid)", "zensus_type_note": "Filled from Zensus type distribution", "zensus_year_note": "Filled from Zensus age distribution", "levels": 6, "height_m": 20.0, "osm_id": "way/552430670", "osmid": 552430670 }, "geometry": { "type": "Polygon", "coordinates": [ [ [ 9.7345942, 52.3757445 ], [ 9.7346503, 52.375729 ], [ 9.734676, 52.3757218 ], [ 9.7346081, 52.375611 ], [ 9.7345211, 52.3756346 ], [ 9.7345942, 52.3757445 ] ] ] } },
{ "type": "Feature", "properties": { "bidx": "9", "address": "Georgstraße 19, 30159 Hannover", "building": "apartments", "area_m2": 785.1669412455941, "building_type_source": "zensus", "year_built": 1959.0, "year_built_source": "zensus", "retrofit_situation": "retrofit", "retrofit_situation_source": "estimated", "retrofit_probability": 0.59, "zensus_age_class": "1949-1978", "zensus_type_class": "multi-family 7-12 dwellings", "zensus_source": "Zensus 2022 (Destatis, 100 m grid)", "zensus_type_note": "Filled from Zensus type distribution", "zensus_year_note": "Filled from Zensus age distribution", "levels": 7, "height_m": 22.0, "osm_id": "way/552430672", "osmid": 552430672 }, "geometry": { "type": "Polygon", "coordinates": [ [ [ 9.7346854, 52.3757372 ], [ 9.7347212, 52.3757288 ], [ 9.7348966, 52.3756876 ], [ 9.7348033, 52.3755283 ], [ 9.734588, 52.3755782 ], [ 9.7346081, 52.375611 ], [ 9.734676, 52.3757218 ], [ 9.7346854, 52.3757372 ] ] ] } },
{ "type": "Feature", "properties": { "bidx": "10", "address": "Kanalstraße 12, 30159", "building": "apartments", "area_m2": 615.56434440473208, "building_type_source": "zensus", "year_built": 1960.0, "year_built_source": "zensus", "retrofit_situation": "retrofit", "retrofit_situation_source": "estimated", "retrofit_probability": 0.59, "zensus_age_class": "1949-1978", "zensus_type_class": "multi-family 7-12 dwellings", "zensus_source": "Zensus 2022 (Destatis, 100 m grid)", "zensus_type_note": "Filled from Zensus type distribution", "zensus_year_note": "Filled from Zensus age distribution", "levels": 6, "height_m": 19.0, "osm_id": "way/552430673", "osmid": 552430673 }, "geometry": { "type": "Polygon", "coordinates": [ [ [ 9.7349865, 52.3758399 ], [ 9.7348966, 52.3756876 ], [ 9.7347212, 52.3757288 ], [ 9.7348087, 52.3758794 ], [ 9.7349865, 52.3758399 ] ] ] } },
{ "type": "Feature", "properties": { "bidx": "11", "address": "Kanalstraße 10, 30159", "building": "residential", "area_m2": 396.05315828731585, "building_type_source": "zensus", "year_built": 1962.0, "year_built_source": "zensus", "retrofit_situation": "retrofit", "retrofit_situation_source": "estimated", "retrofit_probability": 0.59, "zensus_age_class": "1949-1978", "zensus_type_class": "other residential building", "zensus_source": "Zensus 2022 (Destatis, 100 m grid)", "zensus_type_note": "Filled from Zensus type distribution", "zensus_year_note": "Filled from Zensus age distribution", "levels": 6, "height_m": 19.0, "osm_id": "way/552430675", "osmid": 552430675 }, "geometry": { "type": "Polygon", "coordinates": [ [ [ 9.7350964, 52.376092 ], [ 9.7350987, 52.3760765 ], [ 9.7351057, 52.3760375 ], [ 9.7350696, 52.3759766 ], [ 9.7348861, 52.3760127 ], [ 9.7348806, 52.3760482 ], [ 9.7348785, 52.3760625 ], [ 9.7348765, 52.3760773 ], [ 9.7350964, 52.376092 ] ] ] } },
{ "type": "Feature", "properties": { "bidx": "12", "address": null, "building": "commercial", "area_m2": 643.01270214014107, "building_type_source": "osm", "year_built": null, "year_built_source": null, "retrofit_situation": "retrofit", "retrofit_situation_source": "estimated", "retrofit_probability": 0.48, "zensus_age_class": null, "zensus_type_class": null, "zensus_source": null, "zensus_type_note": "Not adjusted: OSM type is outside the residential Zensus type dataset", "zensus_year_note": "Not adjusted: building type is outside the residential Zensus age dataset", "levels": 2, "height_m": 6.0, "osm_id": "way/552430676", "osmid": 552430676 }, "geometry": { "type": "Polygon", "coordinates": [ [ [ 9.7342249, 52.3762555 ], [ 9.7342406, 52.3763388 ], [ 9.7343138, 52.3763435 ], [ 9.7343049, 52.3764364 ], [ 9.7341295, 52.3764295 ], [ 9.7341027, 52.3764285 ], [ 9.7340948, 52.3763745 ], [ 9.7340774, 52.3762641 ], [ 9.7342249, 52.3762555 ] ] ] } },
{ "type": "Feature", "properties": { "bidx": "13", "address": "Kurt-Schumacher-Straße 27, 30159", "building": "office", "area_m2": 453.25042632493404, "building_type_source": "osm", "year_built": null, "year_built_source": null, "retrofit_situation": "retrofit", "retrofit_situation_source": "estimated", "retrofit_probability": 0.48, "zensus_age_class": null, "zensus_type_class": null, "zensus_source": null, "zensus_type_note": "Not adjusted: OSM type is outside the residential Zensus type dataset", "zensus_year_note": "Not adjusted: building type is outside the residential Zensus age dataset", "levels": 6, "height_m": 20.0, "osm_id": "way/552430677", "osmid": 552430677 }, "geometry": { "type": "Polygon", "coordinates": [ [ [ 9.7344795, 52.3764449 ], [ 9.7343049, 52.3764364 ], [ 9.7342958, 52.3765611 ], [ 9.7344701, 52.376575 ], [ 9.7344795, 52.3764449 ] ] ] } },
{ "type": "Feature", "properties": { "bidx": "14", "address": "Kurt-Schumacher-Straße 29, 30159", "building": "office", "area_m2": 441.58268360175305, "building_type_source": "osm", "year_built": null, "year_built_source": null, "retrofit_situation": "retrofit", "retrofit_situation_source": "estimated", "retrofit_probability": 0.48, "zensus_age_class": null, "zensus_type_class": null, "zensus_source": null, "zensus_type_note": "Not adjusted: OSM type is outside the residential Zensus type dataset", "zensus_year_note": "Not adjusted: building type is outside the residential Zensus age dataset", "levels": 6, "height_m": 20.0, "osm_id": "way/552430678", "osmid": 552430678 }, "geometry": { "type": "Polygon", "coordinates": [ [ [ 9.7343049, 52.3764364 ], [ 9.7341295, 52.3764295 ], [ 9.7341248, 52.3765555 ], [ 9.7342958, 52.3765611 ], [ 9.7343049, 52.3764364 ] ] ] } },
{ "type": "Feature", "properties": { "bidx": "15", "address": "Kurt-Schumacher-Straße 25", "building": "office", "area_m2": 470.12520869714012, "building_type_source": "osm", "year_built": null, "year_built_source": null, "retrofit_situation": "retrofit", "retrofit_situation_source": "estimated", "retrofit_probability": 0.48, "zensus_age_class": null, "zensus_type_class": null, "zensus_source": null, "zensus_type_note": "Not adjusted: OSM type is outside the residential Zensus type dataset", "zensus_year_note": "Not adjusted: building type is outside the residential Zensus age dataset", "levels": 6, "height_m": 20.0, "osm_id": "way/552430679", "osmid": 552430679 }, "geometry": { "type": "Polygon", "coordinates": [ [ [ 9.7344701, 52.376575 ], [ 9.7346499, 52.3765816 ], [ 9.7346535, 52.3764503 ], [ 9.7344795, 52.3764449 ], [ 9.7344701, 52.376575 ] ] ] } },
{ "type": "Feature", "properties": { "bidx": "16", "address": null, "building": "apartments", "area_m2": 2238.312493671323, "building_type_source": "zensus", "year_built": 1964.0, "year_built_source": "zensus", "retrofit_situation": "standard", "retrofit_situation_source": "estimated", "retrofit_probability": 0.59, "zensus_age_class": "1949-1978", "zensus_type_class": "multi-family 7-12 dwellings", "zensus_source": "Zensus 2022 (Destatis, 100 m grid)", "zensus_type_note": "Filled from Zensus type distribution", "zensus_year_note": "Filled from Zensus age distribution", "levels": 6, "height_m": 20.0, "osm_id": "way/552430680", "osmid": 552430680 }, "geometry": { "type": "Polygon", "coordinates": [ [ [ 9.7350224, 52.376598 ], [ 9.7346499, 52.3765816 ], [ 9.7346535, 52.3764503 ], [ 9.734724, 52.3764532 ], [ 9.7348174, 52.3764571 ], [ 9.7348569, 52.3761967 ], [ 9.7348587, 52.3761851 ], [ 9.7350774, 52.3761975 ], [ 9.7350224, 52.376598 ] ] ] } },
{ "type": "Feature", "properties": { "bidx": "17", "address": null, "building": "commercial", "area_m2": 128.10412786820609, "building_type_source": "osm", "year_built": null, "year_built_source": null, "retrofit_situation": "retrofit", "retrofit_situation_source": "estimated", "retrofit_probability": 0.48, "zensus_age_class": null, "zensus_type_class": null, "zensus_source": null, "zensus_type_note": "Not adjusted: OSM type is outside the residential Zensus type dataset", "zensus_year_note": "Not adjusted: building type is outside the residential Zensus age dataset", "levels": 2, "height_m": 6.0, "osm_id": "way/552443041", "osmid": 552443041 }, "geometry": { "type": "Polygon", "coordinates": [ [ [ 9.7340325, 52.3759799 ], [ 9.7340207, 52.3759048 ], [ 9.734077, 52.3758882 ], [ 9.7341074, 52.375933 ], [ 9.7341194, 52.3759711 ], [ 9.7340325, 52.3759799 ] ] ] } },
{ "type": "Feature", "properties": { "bidx": "18", "address": null, "building": "commercial", "area_m2": 412.68958760252343, "building_type_source": "osm", "year_built": null, "year_built_source": null, "retrofit_situation": "advanced retrofit", "retrofit_situation_source": "estimated", "retrofit_probability": 0.48, "zensus_age_class": null, "zensus_type_class": null, "zensus_source": null, "zensus_type_note": "Not adjusted: OSM type is outside the residential Zensus type dataset", "zensus_year_note": "Not adjusted: building type is outside the residential Zensus age dataset", "levels": 2, "height_m": 6.0, "osm_id": "way/552443042", "osmid": 552443042 }, "geometry": { "type": "Polygon", "coordinates": [ [ [ 9.7342703, 52.3760544 ], [ 9.7342837, 52.3761436 ], [ 9.7340607, 52.3761584 ], [ 9.7340463, 52.3760674 ], [ 9.7342703, 52.3760544 ] ] ] } },
{ "type": "Feature", "properties": { "bidx": "19", "address": null, "building": "commercial", "area_m2": 482.43469493169687, "building_type_source": "osm", "year_built": null, "year_built_source": null, "retrofit_situation": "standard", "retrofit_situation_source": "estimated", "retrofit_probability": 0.48, "zensus_age_class": null, "zensus_type_class": null, "zensus_source": null, "zensus_type_note": "Not adjusted: OSM type is outside the residential Zensus type dataset", "zensus_year_note": "Not adjusted: building type is outside the residential Zensus age dataset", "levels": 2, "height_m": 6.0, "osm_id": "way/552443043", "osmid": 552443043 }, "geometry": { "type": "Polygon", "coordinates": [ [ [ 9.7342837, 52.3761436 ], [ 9.7343, 52.3762386 ], [ 9.7342724, 52.376241 ], [ 9.7342755, 52.3762525 ], [ 9.7342249, 52.3762555 ], [ 9.7340774, 52.3762641 ], [ 9.7340607, 52.3761584 ], [ 9.7342837, 52.3761436 ] ] ] } },
{ "type": "Feature", "properties": { "bidx": "20", "address": null, "building": "retail", "area_m2": 359.01907912794474, "building_type_source": "osm", "year_built": null, "year_built_source": null, "retrofit_situation": "retrofit", "retrofit_situation_source": "estimated", "retrofit_probability": 0.48, "zensus_age_class": null, "zensus_type_class": null, "zensus_source": null, "zensus_type_note": "Not adjusted: OSM type is outside the residential Zensus type dataset", "zensus_year_note": "Not adjusted: building type is outside the residential Zensus age dataset", "levels": 6, "height_m": 20.0, "osm_id": "way/552443044", "osmid": 552443044 }, "geometry": { "type": "Polygon", "coordinates": [ [ [ 9.7338355, 52.3759905 ], [ 9.7338491, 52.3760808 ], [ 9.7340463, 52.3760674 ], [ 9.7340325, 52.3759799 ], [ 9.7338355, 52.3759905 ] ] ] } },
{ "type": "Feature", "properties": { "bidx": "21", "address": "Nordmannpassage 4", "building": "residential", "area_m2": 371.62243766409767, "building_type_source": "zensus", "year_built": 1965.0, "year_built_source": "zensus", "retrofit_situation": "standard", "retrofit_situation_source": "estimated", "retrofit_probability": 0.59, "zensus_age_class": "1949-1978", "zensus_type_class": "other residential building", "zensus_source": "Zensus 2022 (Destatis, 100 m grid)", "zensus_type_note": "Filled from Zensus type distribution", "zensus_year_note": "Filled from Zensus age distribution", "levels": 6, "height_m": 20.0, "osm_id": "way/552443047", "osmid": 552443047 }, "geometry": { "type": "Polygon", "coordinates": [ [ [ 9.7338491, 52.3760808 ], [ 9.7338635, 52.3761734 ], [ 9.7340607, 52.3761584 ], [ 9.7340463, 52.3760674 ], [ 9.7338491, 52.3760808 ] ] ] } },
{ "type": "Feature", "properties": { "bidx": "22", "address": "Nordmannpassage 6", "building": "residential", "area_m2": 428.4748617686792, "building_type_source": "zensus", "year_built": 1967.0, "year_built_source": "zensus", "retrofit_situation": "retrofit", "retrofit_situation_source": "estimated", "retrofit_probability": 0.59, "zensus_age_class": "1949-1978", "zensus_type_class": "other residential building", "zensus_source": "Zensus 2022 (Destatis, 100 m grid)", "zensus_type_note": "Filled from Zensus type distribution", "zensus_year_note": "Filled from Zensus age distribution", "levels": 6, "height_m": 20.0, "osm_id": "way/552443049", "osmid": 552443049 }, "geometry": { "type": "Polygon", "coordinates": [ [ [ 9.7338635, 52.3761734 ], [ 9.7338799, 52.3762791 ], [ 9.7340774, 52.3762641 ], [ 9.7340607, 52.3761584 ], [ 9.7338635, 52.3761734 ] ] ] } },
{ "type": "Feature", "properties": { "bidx": "23", "address": "Nordmannpassage 8", "building": "residential", "area_m2": 444.11786713312915, "building_type_source": "zensus", "year_built": 1968.0, "year_built_source": "zensus", "retrofit_situation": "standard", "retrofit_situation_source": "estimated", "retrofit_probability": 0.59, "zensus_age_class": "1949-1978", "zensus_type_class": "other residential building", "zensus_source": "Zensus 2022 (Destatis, 100 m grid)", "zensus_type_note": "Filled from Zensus type distribution", "zensus_year_note": "Filled from Zensus age distribution", "levels": 6, "height_m": 20.0, "osm_id": "way/552443052", "osmid": 552443052 }, "geometry": { "type": "Polygon", "coordinates": [ [ [ 9.7338799, 52.3762791 ], [ 9.7338967, 52.3763875 ], [ 9.7340948, 52.3763745 ], [ 9.7340774, 52.3762641 ], [ 9.7338799, 52.3762791 ] ] ] } },
{ "type": "Feature", "properties": { "bidx": "24", "address": "Georgstraße 11, 30159 Hannover", "building": "apartments", "area_m2": 809.21496943066632, "building_type_source": "zensus", "year_built": 1970.0, "year_built_source": "zensus", "retrofit_situation": "retrofit", "retrofit_situation_source": "estimated", "retrofit_probability": 0.59, "zensus_age_class": "1949-1978", "zensus_type_class": "multi-family 7-12 dwellings", "zensus_source": "Zensus 2022 (Destatis, 100 m grid)", "zensus_type_note": "Filled from Zensus type distribution", "zensus_year_note": "Filled from Zensus age distribution", "levels": 6, "height_m": 20.0, "osm_id": "way/552443056", "osmid": 552443056 }, "geometry": { "type": "Polygon", "coordinates": [ [ [ 9.7340325, 52.3759799 ], [ 9.7340207, 52.3759048 ], [ 9.734077, 52.3758882 ], [ 9.7339954, 52.3757776 ], [ 9.7338098, 52.3758277 ], [ 9.7338355, 52.3759905 ], [ 9.7340325, 52.3759799 ] ] ] } },
{ "type": "Feature", "properties": { "bidx": "25", "address": "Kanalstraße 9, 30159", "building": "residential", "area_m2": 479.87133230994266, "building_type_source": "zensus", "year_built": 1972.0, "year_built_source": "zensus", "retrofit_situation": "standard", "retrofit_situation_source": "estimated", "retrofit_probability": 0.59, "zensus_age_class": "1949-1978", "zensus_type_class": "other residential building", "zensus_source": "Zensus 2022 (Destatis, 100 m grid)", "zensus_type_note": "Filled from Zensus type distribution", "zensus_year_note": "Filled from Zensus age distribution", "levels": 6, "height_m": 19.0, "osm_id": "way/552458889", "osmid": 552458889 }, "geometry": { "type": "Polygon", "coordinates": [ [ [ 9.7348765, 52.3760773 ], [ 9.7348749, 52.3760867 ], [ 9.7348602, 52.376176 ], [ 9.7348587, 52.3761851 ], [ 9.7350774, 52.3761975 ], [ 9.7350964, 52.376092 ], [ 9.7348765, 52.3760773 ] ] ] } },
{ "type": "Feature", "properties": { "bidx": "26", "address": "Kanalstraße 11, 30159", "building": "apartments", "area_m2": 556.62007029885388, "building_type_source": "zensus", "year_built": 1973.0, "year_built_source": "zensus", "retrofit_situation": "retrofit", "retrofit_situation_source": "estimated", "retrofit_probability": 0.59, "zensus_age_class": "1949-1978", "zensus_type_class": "multi-family 7-12 dwellings", "zensus_source": "Zensus 2022 (Destatis, 100 m grid)", "zensus_type_note": "Filled from Zensus type distribution", "zensus_year_note": "Filled from Zensus age distribution", "levels": 6, "height_m": 19.0, "osm_id": "way/552458892", "osmid": 552458892 }, "geometry": { "type": "Polygon", "coordinates": [ [ [ 9.7350696, 52.3759766 ], [ 9.7349865, 52.3758399 ], [ 9.7348087, 52.3758794 ], [ 9.7348861, 52.3760127 ], [ 9.7350696, 52.3759766 ] ] ] } },
{ "type": "Feature", "properties": { "bidx": "27", "address": null, "building": "commercial", "area_m2": 441.95322882143245, "building_type_source": "osm", "year_built": null, "year_built_source": null, "retrofit_situation": "retrofit", "retrofit_situation_source": "estimated", "retrofit_probability": 0.48, "zensus_age_class": null, "zensus_type_class": null, "zensus_source": null, "zensus_type_note": "Not adjusted: OSM type is outside the residential Zensus type dataset", "zensus_year_note": "Not adjusted: building type is outside the residential Zensus age dataset", "levels": 2, "height_m": 6.0, "osm_id": "way/552549483", "osmid": 552549483 }, "geometry": { "type": "Polygon", "coordinates": [ [ [ 9.7342623, 52.3758366 ], [ 9.734077, 52.3758882 ], [ 9.7341074, 52.375933 ], [ 9.7342659, 52.3759768 ], [ 9.7343481, 52.3759529 ], [ 9.7342623, 52.3758366 ] ] ] } },
{ "type": "Feature", "properties": { "bidx": "28", "address": "Georgstraße 17, 30159 Hannover", "building": "residential", "area_m2": 500.12483074739424, "building_type_source": "zensus", "year_built": 1975.0, "year_built_source": "zensus", "retrofit_situation": "retrofit", "retrofit_situation_source": "estimated", "retrofit_probability": 0.59, "zensus_age_class": "1949-1978", "zensus_type_class": "other residential building", "zensus_source": "Zensus 2022 (Destatis, 100 m grid)", "zensus_type_note": "Filled from Zensus type distribution", "zensus_year_note": "Filled from Zensus age distribution", "levels": 6, "height_m": 20.0, "osm_id": "way/552582149", "osmid": 552582149 }, "geometry": { "type": "Polygon", "coordinates": [ [ [ 9.7345211, 52.3756346 ], [ 9.7343293, 52.3756876 ], [ 9.7344084, 52.3757965 ], [ 9.7345573, 52.3757547 ], [ 9.7345942, 52.3757445 ], [ 9.7345211, 52.3756346 ] ] ] } },
{ "type": "Feature", "properties": { "bidx": "29", "address": "Georgstraße 15, 30159 Hannover", "building": "residential", "area_m2": 386.14343326789492, "building_type_source": "zensus", "year_built": 1976.0, "year_built_source": "zensus", "retrofit_situation": "retrofit", "retrofit_situation_source": "estimated", "retrofit_probability": 0.59, "zensus_age_class": "1949-1978", "zensus_type_class": "other residential building", "zensus_source": "Zensus 2022 (Destatis, 100 m grid)", "zensus_type_note": "Filled from Zensus type distribution", "zensus_year_note": "Filled from Zensus age distribution", "levels": 6, "height_m": 20.0, "osm_id": "way/552582150", "osmid": 552582150 }, "geometry": { "type": "Polygon", "coordinates": [ [ [ 9.7343293, 52.3756876 ], [ 9.7341844, 52.3757268 ], [ 9.7342623, 52.3758366 ], [ 9.7344084, 52.3757965 ], [ 9.7343293, 52.3756876 ] ] ] } },
{ "type": "Feature", "properties": { "bidx": "30", "address": null, "building": "commercial", "area_m2": 406.73528858253337, "building_type_source": "osm", "year_built": null, "year_built_source": null, "retrofit_situation": "retrofit", "retrofit_situation_source": "estimated", "retrofit_probability": 0.48, "zensus_age_class": null, "zensus_type_class": null, "zensus_source": null, "zensus_type_note": "Not adjusted: OSM type is outside the residential Zensus type dataset", "zensus_year_note": "Not adjusted: building type is outside the residential Zensus age dataset", "levels": 2, "height_m": 6.0, "osm_id": "way/552582151", "osmid": 552582151 }, "geometry": { "type": "Polygon", "coordinates": [ [ [ 9.7344084, 52.3757965 ], [ 9.7342623, 52.3758366 ], [ 9.7343481, 52.3759529 ], [ 9.7344895, 52.3759119 ], [ 9.7344084, 52.3757965 ] ] ] } },
{ "type": "Feature", "properties": { "bidx": "31", "address": null, "building": "commercial", "area_m2": 455.34598060417022, "building_type_source": "osm", "year_built": null, "year_built_source": null, "retrofit_situation": "retrofit", "retrofit_situation_source": "estimated", "retrofit_probability": 0.48, "zensus_age_class": null, "zensus_type_class": null, "zensus_source": null, "zensus_type_note": "Not adjusted: OSM type is outside the residential Zensus type dataset", "zensus_year_note": "Not adjusted: building type is outside the residential Zensus age dataset", "levels": 2, "height_m": 6.0, "osm_id": "way/552582152", "osmid": 552582152 }, "geometry": { "type": "Polygon", "coordinates": [ [ [ 9.7344916, 52.3763164 ], [ 9.7346668, 52.3763227 ], [ 9.7346535, 52.3764503 ], [ 9.7344795, 52.3764449 ], [ 9.7344916, 52.3763164 ] ] ] } },
{ "type": "Feature", "properties": { "bidx": "32", "address": null, "building": "terrace", "area_m2": 134.67140612079504, "building_type_source": "zensus", "year_built": 1978.0, "year_built_source": "zensus", "retrofit_situation": "retrofit", "retrofit_situation_source": "estimated", "retrofit_probability": 0.54, "zensus_age_class": "1949-1978", "zensus_type_class": "row single-family", "zensus_source": "Zensus 2022 (Destatis, 100 m grid)", "zensus_type_note": "Filled from Zensus type distribution", "zensus_year_note": "Filled from Zensus age distribution", "levels": 1, "height_m": 4.0, "osm_id": "way/552582428", "osmid": 552582428 }, "geometry": { "type": "Polygon", "coordinates": [ [ [ 9.7347866, 52.3761715 ], [ 9.7348602, 52.376176 ], [ 9.7348749, 52.3760867 ], [ 9.7348014, 52.3760822 ], [ 9.7347866, 52.3761715 ] ] ] } }
]
}
